NORAD_CAT_ID,OBJECT_NAME,OBJECT_TYPE,EPOCH,MEAN_MOTION,ECCENTRICITY,INCLINATION,RA_OF_ASC_NODE,ARG_OF_PERICENTER,MEAN_ANOMALY,BSTAR,MEAN_MOTION_DOT,MEAN_MOTION_DDOT,TLE_LINE0,TLE_LINE1,TLE_LINE2,SEMIMAJOR_AXIS,PERIOD,APOGEE,PERIGEE,DECAYED
53005.0,STARLINK-4288,PAYLOAD,2023-09-26 19:44:51,15.08834817,0.0001269,53.2164,151.334,81.9705,278.1431,1.1642e-05,-1.03e-06,0.0,0 STARLINK-4288,1 53005U 22076V   23269.82282016 -.00000103  00000-0  11642-4 0  9994,2 53005  53.2164 151.3340 0001269  81.9705 278.1431 15.08834817 68220,6917.896,95.438,540.639,538.883,0.0
53005.0,STARLINK-4288,PAYLOAD,2023-09-26 21:20:14,15.08832625,0.000119,53.2163,151.0366,83.8629,276.2498,-2.1056e-05,-6.23e-06,0.0,0 STARLINK-4288,1 53005U 22076V   23269.88906087 -.00000623  00000-0 -21056-4 0  9999,2 53005  53.2163 151.0366 0001190  83.8629 276.2498 15.08832625 67768,6917.903,95.438,540.591,538.945,0.0
53005.0,STARLINK-4288,PAYLOAD,2023-09-27 02:06:24,15.08834634,0.0001184,53.2162,150.1456,89.6441,270.4686,2.0761e-05,4.3e-07,0.0,0 STARLINK-4288,1 53005U 22076V   23270.08778206  .00000043  00000-0  20761-4 0  9999,2 53005  53.2162 150.1456 0001184  89.6441 270.4686 15.08834634 67796,6917.897,95.438,540.581,538.943,0.0
53005.0,STARLINK-4288,PAYLOAD,2023-09-27 19:35:39,15.08826302,0.000137,53.2161,146.8736,82.1694,277.9454,5.5911e-05,6.02e-06,0.0,0 STARLINK-4288,1 53005U 22076V   23270.81643249  .00000602  00000-0  55911-4 0  9994,2 53005  53.2161 146.8736 0001370  82.1694 277.9454 15.08826302 68376,6917.922,95.438,540.735,538.84,0.0
53005.0,STARLINK-4288,PAYLOAD,2023-09-27 22:46:25,15.08831805,0.0001465,53.2156,146.279,90.2717,269.8443,7.0211e-05,8.29e-06,0.0,0 STARLINK-4288,1 53005U 22076V   23270.94891096  .00000829  00000-0  70211-4 0  9994,2 53005  53.2156 146.2790 0001465  90.2717 269.8443 15.08831805 67927,6917.905,95.438,540.784,538.757,0.0
53005.0,STARLINK-4288,PAYLOAD,2023-09-28 16:15:40,15.08841001,0.0001514,53.2163,143.0062,93.8349,266.2816,0.00038266,5.807e-05,0.0,0 STARLINK-4288,1 53005U 22076V   23271.67755125  .00005807  00000-0  38266-3 0  9991,2 53005  53.2163 143.0062 0001514  93.8349 266.2816 15.08841001 68506,6917.877,95.437,540.79,538.695,0.0
53005.0,STARLINK-4288,PAYLOAD,2023-09-28 21:01:49,15.08848756,0.0001536,53.2161,142.1145,89.8734,270.2434,0.00047583,7.295e-05,0.0,0 STARLINK-4288,1 53005U 22076V   23271.87626863  .00007295  00000-0  47583-3 0  9994,2 53005  53.2161 142.1145 0001536  89.8734 270.2434 15.08848756 68069,6917.854,95.437,540.781,538.656,0.0
53005.0,STARLINK-4288,PAYLOAD,2023-09-29 00:12:35,15.08854831,0.0001566,53.2164,141.5198,92.0093,268.1078,0.00055814,8.61e-05,0.0,0 STARLINK-4288,1 53005U 22076V   23272.00874619  .00008610  00000-0  55814-3 0  9992,2 53005  53.2164 141.5198 0001566  92.0093 268.1078 15.08854831 68555,6917.835,95.437,540.783,538.617,0.0
53005.0,STARLINK-4288,PAYLOAD,2023-09-29 19:17:12,15.088538,0.0001391,53.2151,137.9538,87.281,272.8342,0.00018962,2.732e-05,0.0,0 STARLINK-4288,1 53005U 22076V   23272.80362189  .00002732  00000-0  18962-3 0  9996,2 53005  53.2151 137.9538 0001391  87.2810 272.8342 15.08853800 68671,6917.838,95.437,540.665,538.741,0.0
53005.0,STARLINK-4288,PAYLOAD,2023-09-29 22:27:59,15.08854275,0.0001438,53.2153,137.3597,74.4389,285.6762,0.00020146,2.921e-05,0.0,0 STARLINK-4288,1 53005U 22076V   23272.93610117  .00002921  00000-0  20146-3 0  9994,2 53005  53.2153 137.3597 0001438  74.4389 285.6762 15.08854275 68229,6917.837,95.437,540.697,538.707,0.0
53005.0,STARLINK-4288,PAYLOAD,2023-09-30 08:00:17,15.08844547,0.0001469,53.2159,135.5747,90.5432,269.5728,-2.3488e-05,-6.62e-06,0.0,0 STARLINK-4288,1 53005U 22076V   23273.33354119 -.00000662  00000-0 -23488-4 0  9991,2 53005  53.2159 135.5747 0001469  90.5432 269.5728 15.08844547 68756,6917.866,95.437,540.748,538.715,0.0
53005.0,STARLINK-4288,PAYLOAD,2023-09-30 19:08:00,15.08830339,0.0001362,53.2157,133.4935,94.8033,265.3115,-0.00029787,-5.024e-05,0.0,0 STARLINK-4288,1 53005U 22076V   23273.79722692 -.00005024  00000-0 -29787-3 0  9990,2 53005  53.2157 133.4935 0001362  94.8033 265.3115 15.08830339 68822,6917.91,95.438,540.717,538.833,0.0
53005.0,STARLINK-4288,PAYLOAD,2023-10-01 07:51:05,15.08844891,0.0001468,53.217,131.1125,86.9657,273.1503,1.295e-05,-8.2e-07,0.0,0 STARLINK-4288,1 53005U 22076V   23274.32714663 -.00000082  00000-0  12950-4 0  9992,2 53005  53.2170 131.1125 0001468  86.9657 273.1503 15.08844891 68909,6917.865,95.437,540.746,538.715,0.0
53005.0,STARLINK-4288,PAYLOAD,2023-10-01 20:34:09,15.08851036,0.00013,53.2151,128.7352,90.5112,269.6029,0.0001551,2.182e-05,0.0,0 STARLINK-4288,1 53005U 22076V   23274.85706005  .00002182  00000-0  15510-3 0  9997,2 53005  53.2151 128.7352 0001300  90.5112 269.6029 15.08851036 68513,6917.847,95.437,540.611,538.812,0.0
53005.0,STARLINK-4288,PAYLOAD,2023-10-01 23:44:56,15.08854852,0.0001313,53.2148,128.1397,93.7292,266.385,0.00038155,5.792e-05,0.0,0 STARLINK-4288,1 53005U 22076V   23274.98953964  .00005792  00000-0  38155-3 0  9999,2 53005  53.2148 128.1397 0001313  93.7292 266.3850 15.08854852 69000,6917.835,95.437,540.608,538.792,0.0
53005.0,STARLINK-4288,PAYLOAD,2023-10-02 07:41:52,15.08841541,0.0001418,53.2154,126.6516,89.4124,270.7031,0.00015275,2.144e-05,0.0,0 STARLINK-4288,1 53005U 22076V   23275.32074452  .00002144  00000-0  15275-3 0  9990,2 53005  53.2154 126.6516 0001418  89.4124 270.7031 15.08841541 69051,6917.876,95.437,540.722,538.76,0.0
53005.0,STARLINK-4288,PAYLOAD,2023-10-02 20:24:57,15.08841886,0.0001464,53.2154,124.2721,95.566,264.5499,0.0001326,1.823e-05,0.0,0 STARLINK-4288,1 53005U 22076V   23275.85066631  .00001823  00000-0  13260-3 0  9993,2 53005  53.2154 124.2721 0001464  95.5660 264.5499 15.08841886 68664,6917.875,95.437,540.752,538.727,0.0
53005.0,STARLINK-4288,PAYLOAD,2023-10-03 07:32:39,15.08841347,0.000149,53.2149,122.1901,96.2669,263.8493,9.338e-05,1.199e-05,0.0,0 STARLINK-4288,1 53005U 22076V   23276.31434631  .00001199  00000-0  93380-4 0  9992,2 53005  53.2149 122.1901 0001490  96.2669 263.8493 15.08841347 69200,6917.876,95.437,540.772,538.711,0.0
53005.0,STARLINK-4288,PAYLOAD,2023-10-03 20:15:44,15.0884368,0.0001464,53.2148,119.8128,91.242,268.874,8.0792e-06,-1.59e-06,0.0,0 STARLINK-4288,1 53005U 22076V   23276.84426547 -.00000159  00000-0  80792-5 0  9997,2 53005  53.2148 119.8128 0001464  91.2420 268.8740 15.08843680 68812,6917.869,95.437,540.747,538.721,0.0
53005.0,STARLINK-4288,PAYLOAD,2023-10-03 23:26:30,15.08844674,0.0001507,53.215,119.217,95.0419,265.0745,3.3064e-05,2.38e-06,0.0,0 STARLINK-4288,1 53005U 22076V   23276.97674459  .00000238  00000-0  33064-4 0  9994,2 53005  53.2150 119.2170 0001507  95.0419 265.0745 15.08844674 68834,6917.866,95.437,540.774,538.689,0.0
53005.0,STARLINK-4288,PAYLOAD,2023-10-04 18:31:08,15.08842713,0.0001469,53.2154,115.6477,102.4699,257.6457,0.00015996,2.259e-05,0.0,0 STARLINK-4288,1 53005U 22076V   23277.77162514  .00002259  00000-0  15996-3 0  9995,2 53005  53.2154 115.6477 0001469 102.4699 257.6457 15.08842713 69423,6917.872,95.437,540.753,538.721,0.0
53005.0,STARLINK-4288,PAYLOAD,2023-10-04 20:06:31,15.08847791,0.0001454,53.2148,115.3534,82.5441,277.5716,0.00015437,2.17e-05,0.0,0 STARLINK-4288,1 53005U 22076V   23277.83786376  .00002170  00000-0  15437-3 0  9992,2 53005  53.2148 115.3534 0001454  82.5441 277.5716 15.08847791 68962,6917.857,95.437,540.727,538.716,0.0
53005.0,STARLINK-4288,PAYLOAD,2023-10-04 23:17:17,15.08850963,0.000146,53.2153,114.7572,82.7916,277.3242,0.00020317,2.948e-05,0.0,0 STARLINK-4288,1 53005U 22076V   23277.97034153  .00002948  00000-0  20317-3 0  9992,2 53005  53.2153 114.7572 0001460  82.7916 277.3242 15.08850963 69451,6917.847,95.437,540.722,538.702,0.0
53005.0,STARLINK-4288,PAYLOAD,2023-10-05 19:57:18,15.08843921,0.0001407,53.2157,110.8915,86.1938,273.9215,9.2175e-05,1.179e-05,0.0,0 STARLINK-4288,1 53005U 22076V   23278.83146585  .00001179  00000-0  92175-4 0  9998,2 53005  53.2157 110.8915 0001407  86.1938 273.9215 15.08843921 69588,6917.868,95.437,540.707,538.76,0.0
53005.0,STARLINK-4288,PAYLOAD,2023-10-06 11:51:10,15.08833486,0.0001448,53.2156,107.9166,100.3972,259.7183,-2.1148e-05,-6.24e-06,0.0,0 STARLINK-4288,1 53005U 22076V   23279.49387180 -.00000624  00000-0 -21148-4 0  9997,2 53005  53.2156 107.9166 0001448 100.3972 259.7183 15.08833486 69215,6917.9,95.438,540.767,538.764,0.0
53005.0,STARLINK-4288,PAYLOAD,2023-10-06 21:23:29,15.08838367,0.0001324,53.2157,106.1341,78.8024,281.3117,-1.851e-05,-5.82e-06,0.0,0 STARLINK-4288,1 53005U 22076V   23279.89130978 -.00000582  00000-0 -18510-4 0  9994,2 53005  53.2157 106.1341 0001324  78.8024 281.3117 15.08838367 69741,6917.885,95.438,540.666,538.834,0.0
53005.0,STARLINK-4288,PAYLOAD,2023-10-07 21:14:15,15.08852151,0.0001244,53.2156,101.6737,85.651,274.4624,0.00020052,2.906e-05,0.0,0 STARLINK-4288,1 53005U 22076V   23280.88490534  .00002906  00000-0  20052-3 0  9995,2 53005  53.2156 101.6737 0001244  85.6510 274.4624 15.08852151 69895,6917.843,95.437,540.569,538.848,0.0
53005.0,STARLINK-4288,PAYLOAD,2023-10-08 05:11:12,15.08837668,0.0001527,53.2159,100.1839,89.3395,270.7772,0.00010323,1.355e-05,0.0,0 STARLINK-4288,1 53005U 22076V   23281.21611380  .00001355  00000-0  10323-3 0  9994,2 53005  53.2159 100.1839 0001527  89.3395 270.7772 15.08837668 69946,6917.888,95.438,540.809,538.696,0.0
53005.0,STARLINK-4288,PAYLOAD,2023-10-08 11:32:44,15.08838211,0.0001776,53.2152,98.9981,83.8323,276.2871,0.00013489,1.859e-05,0.0,0 STARLINK-4288,1 53005U 22076V   23281.48107597  .00001859  00000-0  13489-3 0  9998,2 53005  53.2152  98.9981 0001776  83.8323 276.2871 15.08838211 69516,6917.886,95.438,540.979,538.522,0.0
53005.0,STARLINK-4288,PAYLOAD,2023-10-08 19:29:40,15.0883976,0.0001481,53.2155,97.5111,82.5806,277.5354,0.00014575,2.032e-05,0.0,0 STARLINK-4288,1 53005U 22076V   23281.81227570  .00002032  00000-0  14575-3 0  9990,2 53005  53.2155  97.5111 0001481  82.5806 277.5354 15.08839760 69569,6917.881,95.438,540.771,538.722,0.0
